[
    {
        "Altitude(m)": 705783.972955887,
        "Argument of Periapsis(deg)": 0.011390121186627068,
        "Eccentricity": 0.0,
        "Inclination(deg)": 45.0,
        "Latitude(deg)": 38.179351570552264,
        "Longitude(deg)": -59.319142383605865,
        "Mean Anomaly(deg)": -299.37588335251917,
        "RAAN(deg)": 349.9892480585418,
        "Satellite Name": "Constellation 1 1543",
        "Satellite Number": 1543,
        "Semi-Major Axis(m)": 7083131.272910544,
        "Time(s)": 190
    },
    {
        "Altitude(m)": 705789.5275747268,
        "Argument of Periapsis(deg)": 0.011450069192872472,
        "Eccentricity": 0.0,
        "Inclination(deg)": 45.0,
        "Latitude(deg)": 38.20616692246484,
        "Longitude(deg)": -59.25403104473431,
        "Mean Anomaly(deg)": -299.3151822122693,
        "RAAN(deg)": 349.98919146937624,
        "Satellite Name": "Constellation 1 1543",
        "Satellite Number": 1543,
        "Semi-Major Axis(m)": 7083131.272910544,
        "Time(s)": 191
    },
    {
        "Altitude(m)": 705795.0766390173,
        "Argument of Periapsis(deg)": 0.01151001719911788,
        "Eccentricity": 0.0,
        "Inclination(deg)": 45.0,
        "Latitude(deg)": 38.23294132215804,
        "Longitude(deg)": -59.18886897638283,
        "Mean Anomaly(deg)": -299.2544810720194,
        "RAAN(deg)": 349.98913488021066,
        "Satellite Name": "Constellation 1 1543",
        "Satellite Number": 1543,
        "Semi-Major Axis(m)": 7083131.272910544,
        "Time(s)": 192
    },
    {
        "Altitude(m)": 705800.6201146025,
        "Argument of Periapsis(deg)": 0.011569965205363285,
        "Eccentricity": 0.0,
        "Inclination(deg)": 45.0,
        "Latitude(deg)": 38.25967470104715,
        "Longitude(deg)": -59.12365633822941,
        "Mean Anomaly(deg)": -299.1937799317694,
        "RAAN(deg)": 349.9890782910451,
        "Satellite Name": "Constellation 1 1543",
        "Satellite Number": 1543,
        "Semi-Major Axis(m)": 7083131.272910544,
        "Time(s)": 193
    },
    {
        "Altitude(m)": 705806.1579673667,
        "Argument of Periapsis(deg)": 0.01162991321160869,
        "Eccentricity": 0.0,
        "Inclination(deg)": 45.0,
        "Latitude(deg)": 38.28636699051787,
        "Longitude(deg)": -59.058392786016505,
        "Mean Anomaly(deg)": -299.1330787915196,
        "RAAN(deg)": 349.98902170187955,
        "Satellite Name": "Constellation 1 1543",
        "Satellite Number": 1543,
        "Semi-Major Axis(m)": 7083131.272910544,
        "Time(s)": 194
    },
    {
        "Altitude(m)": 705811.6901632396,
        "Argument of Periapsis(deg)": 0.011689861217854095,
        "Eccentricity": 0.0,
        "Inclination(deg)": 45.0,
        "Latitude(deg)": 38.31301812192581,
        "Longitude(deg)": -58.99307848013389,
        "Mean Anomaly(deg)": -299.07237765126973,
        "RAAN(deg)": 349.98896511271397,
        "Satellite Name": "Constellation 1 1543",
        "Satellite Number": 1543,
        "Semi-Major Axis(m)": 7083131.272910544,
        "Time(s)": 195
    },
    {
        "Altitude(m)": 705817.2166681854,
        "Argument of Periapsis(deg)": 0.0117498092240995,
        "Eccentricity": 0.0,
        "Inclination(deg)": 45.0,
        "Latitude(deg)": 38.339628026597794,
        "Longitude(deg)": -58.92771341323172,
        "Mean Anomaly(deg)": -299.0116765110198,
        "RAAN(deg)": 349.9889085235484,
        "Satellite Name": "Constellation 1 1543",
        "Satellite Number": 1543,
        "Semi-Major Axis(m)": 7083131.272910544,
        "Time(s)": 196
    },
    {
        "Altitude(m)": 705822.7374482227,
        "Argument of Periapsis(deg)": 0.011809757230344905,
        "Eccentricity": 0.0,
        "Inclination(deg)": 45.0,
        "Latitude(deg)": 38.366196635831905,
        "Longitude(deg)": -58.86229757831996,
        "Mean Anomaly(deg)": -298.95097537076987,
        "RAAN(deg)": 349.98885193438286,
        "Satellite Name": "Constellation 1 1543",
        "Satellite Number": 1543,
        "Semi-Major Axis(m)": 7083131.272910544,
        "Time(s)": 197
    },
    {
        "Altitude(m)": 705828.252469412,
        "Argument of Periapsis(deg)": 0.011869705236590313,
        "Eccentricity": 0.0,
        "Inclination(deg)": 45.0,
        "Latitude(deg)": 38.3927238808979,
        "Longitude(deg)": -58.796830968769406,
        "Mean Anomaly(deg)": -298.89027423052,
        "RAAN(deg)": 349.9887953452172,
        "Satellite Name": "Constellation 1 1543",
        "Satellite Number": 1543,
        "Semi-Major Axis(m)": 7083131.272910544,
        "Time(s)": 198
    },
    {
        "Altitude(m)": 705833.7616978508,
        "Argument of Periapsis(deg)": 0.011929653242835719,
        "Eccentricity": 0.0,
        "Inclination(deg)": 45.0,
        "Latitude(deg)": 38.41920969303799,
        "Longitude(deg)": -58.731313578312786,
        "Mean Anomaly(deg)": -298.8295730902701,
        "RAAN(deg)": 349.9887387560517,
        "Satellite Name": "Constellation 1 1543",
        "Satellite Number": 1543,
        "Semi-Major Axis(m)": 7083131.272910544,
        "Time(s)": 199
    }
]